{
  "norad_id": 53871,
  "name": "STARLINK-4740",
  "history": [
    {
      "epoch": "2026-03-28T12:59:08.792736",
      "apogee_km": 540.5803097909184,
      "perigee_km": 538.8722893422555,
      "latitude_deg": 34.14150676246038,
      "longitude_deg": -20.956896959804,
      "semi_major_axis_km": 6917.863299566587,
      "eccentricity": 0.00012345,
      "inclination_deg": 53.2179,
      "raan_deg": 179.1136,
      "arg_perigee_deg": 91.073,
      "mean_anomaly_deg": 269.0403,
      "mean_motion_rev_day": 15.08845591
    }
  ]
}