{"fetched_at":"2026-03-30T06:02:59Z","count":15439,"tles":[{"name":"STARLINK-4740","line1":"1 53871U 22114BF  26087.54107399  .00000021  00000+0  19423-4 0  9990","line2":"2 53871  53.2179 179.1136 0001234  91.0730 269.0403 15.08845591196243","category":"Starlink"}]}